STARLINK-1020           
1 44725U 19074N   26068.66891391 -.00001867  00000+0 -50945-4 0  9998
2 44725  53.1589 203.9432 0000978  90.3777 269.7336 15.30188453348509
PHISAT 2                
1 60470U 24149C   26068.78834181  .00008925  00000+0  31421-3 0  9996
2 60470  97.3806 148.6498 0001175 168.6230 191.5037 15.29548631 86792
